NORAD_CAT_ID,OBJECT_NAME,OBJECT_TYPE,EPOCH,MEAN_MOTION,ECCENTRICITY,INCLINATION,RA_OF_ASC_NODE,ARG_OF_PERICENTER,MEAN_ANOMALY,BSTAR,MEAN_MOTION_DOT,MEAN_MOTION_DDOT,TLE_LINE0,TLE_LINE1,TLE_LINE2,SEMIMAJOR_AXIS,PERIOD,APOGEE,PERIGEE,DECAYED
53829.0,STARLINK-4759,PAYLOAD,2023-01-22 04:45:17,15.08835962,0.0001473,53.2185,32.9813,103.486,256.6297,-3.4558000000000004e-05,-8.38e-06,0.0,0 STARLINK-4759,1 53829U 22114M   23022.19812068 -.00000838  00000-0 -34558-4 0  9991,2 53829  53.2185  32.9813 0001473 103.4860 256.6297 15.08835962 19819,6917.893,95.438,540.7769999999999,538.739,0.0
53829.0,STARLINK-4759,PAYLOAD,2023-01-22 11:06:49,15.08844336,0.0001537,53.2194,31.7911,99.4193,260.6973,3.4292e-05,2.58e-06,0.0,0 STARLINK-4759,1 53829U 22114M   23022.46307246  .00000258  00000-0  34292-4 0  9997,2 53829  53.2194  31.7911 0001537  99.4193 260.6973 15.08844336 19854,6917.866999999999,95.437,540.795,538.669,0.0
53829.0,STARLINK-4759,PAYLOAD,2023-01-23 01:25:18,15.0882513,0.0001962,53.2193,29.1143,78.6276,281.4937,7.149e-05,8.49e-06,0.0,0 STARLINK-4759,1 53829U 22114M   23023.05924608  .00000849  00000-0  71490-4 0  9997,2 53829  53.2193  29.1143 0001962  78.6276 281.4937 15.08825130 19946,6917.926,95.438,541.148,538.434,0.0
53829.0,STARLINK-4759,PAYLOAD,2023-01-23 17:19:10,15.08835216,0.0001307,53.219,26.1419,88.9039,271.2103,-1.8476e-05,-5.82e-06,0.0,0 STARLINK-4759,1 53829U 22114M   23023.72164483 -.00000582  00000-0 -18476-4 0  9999,2 53829  53.2190  26.1419 0001307  88.9039 271.2103 15.08835216 20041,6917.895,95.438,540.664,538.856,0.0
53829.0,STARLINK-4759,PAYLOAD,2023-01-24 06:02:14,15.08848387,0.0001217,53.2183,23.761,96.3172,263.7959,8.7471e-07,-2.74e-06,0.0,0 STARLINK-4759,1 53829U 22114M   23024.25155717 -.00000274  00000-0  87471-6 0  9998,2 53829  53.2183  23.7610 0001217  96.3172 263.7959 15.08848387 20127,6917.855,95.437,540.562,538.878,0.0
53829.0,STARLINK-4759,PAYLOAD,2023-01-25 05:53:01,15.08841943,0.0001001,53.2185,19.3024,90.4007,269.71,9.313e-05,1.195e-05,0.0,0 STARLINK-4759,1 53829U 22114M   23025.24515629  .00001195  00000-0  93130-4 0  9999,2 53829  53.2185  19.3024 0001001  90.4007 269.7100 15.08841943 20273,6917.874,95.437,540.432,539.047,0.0
53829.0,STARLINK-4759,PAYLOAD,2023-01-25 17:00:43,15.08846958,0.0001129,53.2183,17.2211,96.1959,263.9162,3.4376e-05,2.59e-06,0.0,0 STARLINK-4759,1 53829U 22114M   23025.70883349  .00000259  00000-0  34376-4 0  9994,2 53829  53.2183  17.2211 0001129  96.1959 263.9162 15.08846958 20888,6917.859,95.437,540.505,538.943,0.0
53829.0,STARLINK-4759,PAYLOAD,2023-01-26 02:33:03,15.08835177,0.0001113,53.2185,15.4346,93.1133,266.9986,-7.774400000000001e-06,-4.11e-06,0.0,0 STARLINK-4759,1 53829U 22114M   23026.10628478 -.00000411  00000-0 -77744-5 0  9998,2 53829  53.2185  15.4346 0001113  93.1133 266.9986 15.08835177 20409,6917.895,95.438,540.53,538.99,0.0
53829.0,STARLINK-4759,PAYLOAD,2023-01-26 08:54:35,15.08844989,0.0001354,53.2186,14.2469,65.0557,295.0575,-1.9712e-05,-6.02e-06,0.0,0 STARLINK-4759,1 53829U 22114M   23026.37124053 -.00000602  00000-0 -19712-4 0  9999,2 53829  53.2186  14.2469 0001354  65.0557 295.0575 15.08844989 20989,6917.865,95.437,540.6669999999999,538.793,0.0
53829.0,STARLINK-4759,PAYLOAD,2023-01-26 23:13:03,15.08836797,0.0001026,53.2187,11.5685,97.7434,262.3674,-1.5259e-05,-5.31e-06,0.0,0 STARLINK-4759,1 53829U 22114M   23026.96740333 -.00000531  00000-0 -15259-4 0  9992,2 53829  53.2187  11.5685 0001026  97.7434 262.3674 15.08836797 20538,6917.89,95.438,540.465,539.045,0.0
53829.0,STARLINK-4759,PAYLOAD,2023-01-27 05:34:35,15.08844917,0.0001014,53.2186,10.3782,100.0242,260.0865,4.7334e-05,4.66e-06,0.0,0 STARLINK-4759,1 53829U 22114M   23027.23235567  .00000466  00000-0  47334-4 0  9995,2 53829  53.2186  10.3782 0001014 100.0242 260.0865 15.08844917 20578,6917.865,95.437,540.432,539.029,0.0
53829.0,STARLINK-4759,PAYLOAD,2023-01-28 05:25:23,15.08836497,8.79e-05,53.2187,5.9228,94.1289,265.9803,1.7426e-05,-1e-07,0.0,0 STARLINK-4759,1 53829U 22114M   23028.22596475 -.00000010  00000-0  17426-4 0  9998,2 53829  53.2187   5.9228 0000879  94.1289 265.9803 15.08836497 20723,6917.891,95.438,540.364,539.148,0.0
53829.0,STARLINK-4759,PAYLOAD,2023-01-29 16:23:52,15.08836672,6.98e-05,53.2181,359.3822,102.19,257.917,3.5545e-05,2.78e-06,0.0,0 STARLINK-4759,1 53829U 22114M   23029.68324549  .00000278  00000-0  35545-4 0  9997,2 53829  53.2181 359.3822 0000698 102.1900 257.9170 15.08836672 20949,6917.891,95.438,540.238,539.273,0.0
53829.0,STARLINK-4759,PAYLOAD,2023-01-30 06:42:20,15.08843403,8.13e-05,53.2187,356.7049,111.9854,248.1224,0.0001161,1.561e-05,0.0,0 STARLINK-4759,1 53829U 22114M   23030.27939887  .00001561  00000-0  11610-3 0  9993,2 53829  53.2187 356.7049 0000813 111.9854 248.1224 15.08843403 21035,6917.87,95.437,540.297,539.173,0.0
53829.0,STARLINK-4759,PAYLOAD,2023-01-30 22:36:12,15.08837074,9.02e-05,53.2191,353.7315,110.5328,249.5761,-4.0032e-05,-9.25e-06,0.0,0 STARLINK-4759,1 53829U 22114M   23030.94180878 -.00000925  00000-0 -40032-4 0  9991,2 53829  53.2191 353.7315 0000902 110.5328 249.5761 15.08837074 21132,6917.889,95.438,540.378,539.13,0.0
53829.0,STARLINK-4759,PAYLOAD,2023-01-31 01:46:58,15.08841137,0.0001112,53.2189,353.1343,129.3808,230.7283,-3.7993e-06,-3.48e-06,0.0,0 STARLINK-4759,1 53829U 22114M   23031.07428380 -.00000348  00000-0 -37993-5 0  9991,2 53829  53.2189 353.1343 0001112 129.3808 230.7283 15.08841137 21157,6917.877,95.437,540.511,538.973,0.0
53829.0,STARLINK-4759,PAYLOAD,2023-01-31 16:05:26,15.08839468,9.2e-05,53.2192,350.4607,89.8616,270.2482,2.3596e-05,8.8e-07,0.0,0 STARLINK-4759,1 53829U 22114M   23031.67044533  .00000088  00000-0  23596-4 0  9993,2 53829  53.2192 350.4607 0000920  89.8616 270.2482 15.08839468 21780,6917.882,95.438,540.383,539.111,0.0
53829.0,STARLINK-4759,PAYLOAD,2023-02-01 06:23:53,15.08849684,0.0001092,53.2186,347.783,95.7245,264.3871,4.9934e-05,5.07e-06,0.0,0 STARLINK-4759,1 53829U 22114M   23032.26659677  .00000507  00000-0  49934-4 0  9990,2 53829  53.2186 347.7830 0001092  95.7245 264.3871 15.08849684 21333,6917.851,95.437,540.471,538.96,0.0
53829.0,STARLINK-4759,PAYLOAD,2023-02-02 03:03:55,15.08838008,0.0001096,53.2188,343.9186,84.7901,275.3216,-3.1497e-05,-7.89e-06,0.0,0 STARLINK-4759,1 53829U 22114M   23033.12772854 -.00000789  00000-0 -31497-4 0  9998,2 53829  53.2188 343.9186 0001096  84.7901 275.3216 15.08838008 21465,6917.886,95.438,540.51,538.993,0.0
53829.0,STARLINK-4759,PAYLOAD,2023-02-02 22:08:32,15.08843294,0.000118,53.2188,340.3509,79.2672,280.8453,2.6438e-05,1.33e-06,0.0,0 STARLINK-4759,1 53829U 22114M   23033.92260241  .00000133  00000-0  26438-4 0  9998,2 53829  53.2188 340.3509 0001180  79.2672 280.8453 15.08843294 21583,6917.87,95.437,540.552,538.919,0.0
53829.0,STARLINK-4759,PAYLOAD,2023-02-03 02:54:41,15.08850213,0.0001126,53.2187,339.4577,87.158,272.9541,7.9244e-05,9.74e-06,0.0,0 STARLINK-4759,1 53829U 22114M   23034.12131504  .00000974  00000-0  79244-4 0  9996,2 53829  53.2187 339.4577 0001126  87.1580 272.9541 15.08850213 21615,6917.849,95.437,540.493,538.935,0.0
53829.0,STARLINK-4759,PAYLOAD,2023-02-04 05:56:15,15.08841757,0.0001178,53.2187,334.4025,89.4714,270.6414,3.2526e-05,2.3e-06,0.0,0 STARLINK-4759,1 53829U 22114M   23035.24740212  .00000230  00000-0  32526-4 0  9999,2 53829  53.2187 334.4025 0001178  89.4714 270.6414 15.08841757 21784,6917.875,95.437,540.555,538.925,0.0
53829.0,STARLINK-4759,PAYLOAD,2023-02-05 02:36:17,15.08837737,0.0001082,53.2187,330.5382,79.6514,280.46,-0.00011166,-2.064e-05,0.0,0 STARLINK-4759,1 53829U 22114M   23036.10853167 -.00002064  00000-0 -11166-3 0  9994,2 53829  53.2187 330.5382 0001082  79.6514 280.4600 15.08837737 21914,6917.887,95.438,540.501,539.004,0.0
53829.0,STARLINK-4759,PAYLOAD,2023-02-06 04:02:26,15.0884233,0.0001107,53.2188,325.7799,85.3393,274.7726,4.4267e-05,4.17e-06,0.0,0 STARLINK-4759,1 53829U 22114M   23037.16836730  .00000417  00000-0  44267-4 0  9995,2 53829  53.2188 325.7799 0001107  85.3393 274.7726 15.08842330 22078,6917.873,95.437,540.504,538.972,0.0
53829.0,STARLINK-4759,PAYLOAD,2023-02-06 18:20:55,15.08834846,0.0001174,53.2194,323.1042,96.449,263.6636,8.3479e-05,1.041e-05,0.0,0 STARLINK-4759,1 53829U 22114M   23037.76453081  .00001041  00000-0  83479-4 0  9997,2 53829  53.2194 323.1042 0001174  96.4490 263.6636 15.08834846 22163,6917.896,95.438,540.573,538.949,0.0
53829.0,STARLINK-4759,PAYLOAD,2023-02-07 03:53:13,15.08853541,0.0001214,53.2194,321.3188,78.701,281.4118,0.00014761,2.063e-05,0.0,0 STARLINK-4759,1 53829U 22114M   23038.16195700  .00002063  00000-0  14761-3 0  9995,2 53829  53.2194 321.3188 0001214  78.7010 281.4118 15.08853541 22223,6917.839,95.437,540.544,538.864,0.0
53829.0,STARLINK-4759,PAYLOAD,2023-02-07 22:57:51,15.08846444,0.0001513,53.2196,317.7519,134.4531,225.6585,-4.1923e-05,-9.55e-06,0.0,0 STARLINK-4759,1 53829U 22114M   23038.95684480 -.00000955  00000-0 -41923-4 0  9991,2 53829  53.2196 317.7519 0001513 134.4531 225.6585 15.08846444 22347,6917.861,95.437,540.772,538.679,0.0
53829.0,STARLINK-4759,PAYLOAD,2023-02-08 06:54:45,15.088606,0.0001008,53.219,316.2664,89.1216,270.9892,0.00012276,1.668e-05,0.0,0 STARLINK-4759,1 53829U 22114M   23039.28803058  .00001668  00000-0  12276-3 0  9990,2 53829  53.2190 316.2664 0001008  89.1216 270.9892 15.08860600 22390,6917.817,95.436,540.38,538.985,0.0
53829.0,STARLINK-4759,PAYLOAD,2023-02-09 03:34:47,15.08854048,0.0001372,53.2194,312.3962,89.8362,270.2787,-2.4615e-05,-6.8e-06,0.0,0 STARLINK-4759,1 53829U 22114M   23040.14915975 -.00000680  00000-0 -24615-4 0  9995,2 53829  53.2194 312.3962 0001372  89.8362 270.2787 15.08854048 22525,6917.837,95.437,540.652,538.753,0.0
53829.0,STARLINK-4759,PAYLOAD,2023-02-10 00:14:48,15.08851128,0.0001111,53.2184,308.5336,90.4852,269.6268,-5.4147e-05,-1.15e-05,0.0,0 STARLINK-4759,1 53829U 22114M   23041.01028525 -.00001150  00000-0 -54147-4 0  9994,2 53829  53.2184 308.5336 0001111  90.4852 269.6268 15.08851128 22655,6917.846,95.437,540.48,538.943,0.0
